{"type": "FeatureCollection", "features": [{"type": "Feature", "properties": {"norad_id": 28054, "name": "DMSP 5D-3 F16 (USA 172)", "group": "weather", "lat": 50.95393523351346, "lon": -11.610414567302819, "alt_km": 838.448597541038, "timestamp": "2025-12-08T05:48:08.691248+00:00", "meta": {"OBJECT_NAME": "DMSP 5D-3 F16 (USA 172)", "OBJECT_ID": "2003-048A", "EPOCH": "2025-12-07T23:03:43.678080", "MEAN_MOTION": 14.14421497, "ECCENTRICITY": 0.00066839, "INCLINATION": 99.0048, "RA_OF_ASC_NODE": 359.3803, "ARG_OF_PERICENTER": 335.6309, "MEAN_ANOMALY": 86.9608, "EPHEMERIS_TYPE": 0, "CLASSIFICATION_TYPE": "U", "NORAD_CAT_ID": 28054, "ELEMENT_SET_NO": 999, "REV_AT_EPOCH": 14245, "BSTAR": 0.00013689699, "MEAN_MOTION_DOT": 2.17e-06, "MEAN_MOTION_DDOT": 0}, "tle": {"line1": "1 28054U 03048A   25341.96092220  .00000217  00000+0  13690-3 0  9990", "line2": "2 28054  99.0048 359.3803 0006683 335.6309  86.9608 14.14421497142454"}}, "geometry": {"type": "Point", "coordinates": [-11.610414567302819, 50.95393523351346]}}, {"type": "Feature", "properties": {"norad_id": 28912, "name": "METEOSAT-9 (MSG-2)", "group": "weather", "lat": 3.9101336740076853, "lon": -149.83665986287218, "alt_km": 35771.60709671788, "timestamp": "2025-12-08T05:48:08.691295+00:00", "meta": {"OBJECT_NAME": "METEOSAT-9 (MSG-2)", "OBJECT_ID": "2005-049B", "EPOCH": "2025-12-07T20:41:55.425120", "MEAN_MOTION": 1.00273689, "ECCENTRICITY": 0.00039018, "INCLINATION": 8.9285, "RA_OF_ASC_NODE": 56.0211, "ARG_OF_PERICENTER": 189.463, "MEAN_ANOMALY": 187.4925, "EPHEMERIS_TYPE": 0, "CLASSIFICATION_TYPE": "U", "NORAD_CAT_ID": 28912, "ELEMENT_SET_NO": 999, "REV_AT_EPOCH": 508, "BSTAR": 0, "MEAN_MOTION_DOT": 1.24e-06, "MEAN_MOTION_DDOT": 0}, "tle": {"line1": "1 28912U 05049B   25341.86244705  .00000124  00000+0  00000+0 0  9996", "line2": "2 28912   8.9285  56.0211 0003901 189.4630 187.4925  1.00273689  5080"}}, "geometry": {"type": "Point", "coordinates": [-149.83665986287218, 3.9101336740076853]}}, {"type": "Feature", "properties": {"norad_id": 29522, "name": "DMSP 5D-3 F17 (USA 191)", "group": "weather", "lat": -15.514261498797419, "lon": -9.828314902204307, "alt_km": 849.0887007082292, "timestamp": "2025-12-08T05:48:08.691313+00:00", "meta": {"OBJECT_NAME": "DMSP 5D-3 F17 (USA 191)", "OBJECT_ID": "2006-050A", "EPOCH": "2025-12-07T23:05:16.212480", "MEAN_MOTION": 14.14916411, "ECCENTRICITY": 0.00092661, "INCLINATION": 98.7393, "RA_OF_ASC_NODE": 347.4505, "ARG_OF_PERICENTER": 239.5341, "MEAN_ANOMALY": 120.4918, "EPHEMERIS_TYPE": 0, "CLASSIFICATION_TYPE": "U", "NORAD_CAT_ID": 29522, "ELEMENT_SET_NO": 999, "REV_AT_EPOCH": 98537, "BSTAR": 0.00016690195, "MEAN_MOTION_DOT": 2.79e-06, "MEAN_MOTION_DDOT": 0}, "tle": {"line1": "1 29522U 06050A   25341.96199320  .00000279  00000+0  16690-3 0  9997", "line2": "2 29522  98.7393 347.4505 0009266 239.5341 120.4918 14.14916411985378"}}, "geometry": {"type": "Point", "coordinates": [-9.828314902204307, -15.514261498797419]}}, {"type": "Feature", "properties": {"norad_id": 32958, "name": "FENGYUN 3A", "group": "weather", "lat": -15.857349641667929, "lon": -75.65282608321075, "alt_km": 826.214990634302, "timestamp": "2025-12-08T05:48:08.691326+00:00", "meta": {"OBJECT_NAME": "FENGYUN 3A", "OBJECT_ID": "2008-026A", "EPOCH": "2025-12-07T23:06:39.656736", "MEAN_MOTION": 14.19512133, "ECCENTRICITY": 0.00081212, "INCLINATION": 98.6691, "RA_OF_ASC_NODE": 281.5905, "ARG_OF_PERICENTER": 325.4381, "MEAN_ANOMALY": 34.6266, "EPHEMERIS_TYPE": 0, "CLASSIFICATION_TYPE": "U", "NORAD_CAT_ID": 32958, "ELEMENT_SET_NO": 999, "REV_AT_EPOCH": 90827, "BSTAR": 0.00012077091, "MEAN_MOTION_DOT": 2.11e-06, "MEAN_MOTION_DDOT": 0}, "tle": {"line1": "1 32958U 08026A   25341.96295899  .00000211  00000+0  12077-3 0  9998", "line2": "2 32958  98.6691 281.5905 0008121 325.4381  34.6266 14.19512133908279"}}, "geometry": {"type": "Point", "coordinates": [-75.65282608321075, -15.857349641667929]}}, {"type": "Feature", "properties": {"norad_id": 35491, "name": "GOES 14", "group": "weather", "lat": -0.5618340424498509, "lon": 55.98384729460677, "alt_km": 35803.188380636595, "timestamp": "2025-12-08T05:48:08.691340+00:00", "meta": {"OBJECT_NAME": "GOES 14", "OBJECT_ID": "2009-033A", "EPOCH": "2025-12-07T21:40:49.783872", "MEAN_MOTION": 1.00273001, "ECCENTRICITY": 0.00041143, "INCLINATION": 1.1865, "RA_OF_ASC_NODE": 85.4623, "ARG_OF_PERICENTER": 154.032, "MEAN_ANOMALY": 54.3217, "EPHEMERIS_TYPE": 0, "CLASSIFICATION_TYPE": "U", "NORAD_CAT_ID": 35491, "ELEMENT_SET_NO": 999, "REV_AT_EPOCH": 467, "BSTAR": 0, "MEAN_MOTION_DOT": -6.5e-07, "MEAN_MOTION_DDOT": 0}, "tle": {"line1": "1 35491U 09033A   25341.90335398 -.00000065  00000+0  00000+0 0  9992", "line2": "2 35491   1.1865  85.4623 0004114 154.0320  54.3217  1.00273001  4671"}}, "geometry": {"type": "Point", "coordinates": [55.98384729460677, -0.5618340424498509]}}, {"type": "Feature", "properties": {"norad_id": 35951, "name": "DMSP 5D-3 F18 (USA 210)", "group": "weather", "lat": -33.819844395931376, "lon": 132.65110507625428, "alt_km": 855.9135969670024, "timestamp": "2025-12-08T05:48:08.691353+00:00", "meta": {"OBJECT_NAME": "DMSP 5D-3 F18 (USA 210)", "OBJECT_ID": "2009-057A", "EPOCH": "2025-12-07T22:00:17.296704", "MEAN_MOTION": 14.1476449, "ECCENTRICITY": 0.00121099, "INCLINATION": 98.8829, "RA_OF_ASC_NODE": 318.3419, "ARG_OF_PERICENTER": 75.2903, "MEAN_ANOMALY": 284.9611, "EPHEMERIS_TYPE": 0, "CLASSIFICATION_TYPE": "U", "NORAD_CAT_ID": 35951, "ELEMENT_SET_NO": 999, "REV_AT_EPOCH": 83254, "BSTAR": 0.00022462782, "MEAN_MOTION_DOT": 3.89e-06, "MEAN_MOTION_DDOT": 0}, "tle": {"line1": "1 35951U 09057A   25341.91686686  .00000389  00000+0  22463-3 0  9998", "line2": "2 35951  98.8829 318.3419 0012109  75.2903 284.9611 14.14764490832540"}}, "geometry": {"type": "Point", "coordinates": [132.65110507625428, -33.819844395931376]}}, {"type": "Feature", "properties": {"norad_id": 36411, "name": "EWS-G2 (GOES 15)", "group": "weather", "lat": 0.4985799385670015, "lon": -134.30441971232108, "alt_km": 35765.61694433405, "timestamp": "2025-12-08T05:48:08.691366+00:00", "meta": {"OBJECT_NAME": "EWS-G2 (GOES 15)", "OBJECT_ID": "2010-008A", "EPOCH": "2025-12-07T22:49:38.694720", "MEAN_MOTION": 1.00268517, "ECCENTRICITY": 0.00059882, "INCLINATION": 0.8017, "RA_OF_ASC_NODE": 86.0622, "ARG_OF_PERICENTER": 172.5431, "MEAN_ANOMALY": 222.2211, "EPHEMERIS_TYPE": 0, "CLASSIFICATION_TYPE": "U", "NORAD_CAT_ID": 36411, "ELEMENT_SET_NO": 999, "REV_AT_EPOCH": 5772, "BSTAR": 0, "MEAN_MOTION_DOT": 4.1e-07, "MEAN_MOTION_DDOT": 0}, "tle": {"line1": "1 36411U 10008A   25341.95114230  .00000041  00000+0  00000+0 0  9997", "line2": "2 36411   0.8017  86.0622 0005988 172.5431 222.2211  1.00268517 57723"}}, "geometry": {"type": "Point", "coordinates": [-134.30441971232108, 0.4985799385670015]}}, {"type": "Feature", "properties": {"norad_id": 36744, "name": "COMS 1", "group": "weather", "lat": -2.465998919716275, "lon": -67.6069231576383, "alt_km": 35782.051202526534, "timestamp": "2025-12-08T05:48:08.691378+00:00", "meta": {"OBJECT_NAME": "COMS 1", "OBJECT_ID": "2010-032A", "EPOCH": "2025-12-07T17:45:51.479424", "MEAN_MOTION": 1.00271292, "ECCENTRICITY": 0.00011614, "INCLINATION": 4.3291, "RA_OF_ASC_NODE": 78.052, "ARG_OF_PERICENTER": 192.8793, "MEAN_ANOMALY": 200.4669, "EPHEMERIS_TYPE": 0, "CLASSIFICATION_TYPE": "U", "NORAD_CAT_ID": 36744, "ELEMENT_SET_NO": 999, "REV_AT_EPOCH": 4917, "BSTAR": 0, "MEAN_MOTION_DOT": -3.42e-06, "MEAN_MOTION_DDOT": 0}, "tle": {"line1": "1 36744U 10032A   25341.74017916 -.00000342  00000+0  00000+0 0  9998", "line2": "2 36744   4.3291  78.0520 0001161 192.8793 200.4669  1.00271292 49177"}}, "geometry": {"type": "Point", "coordinates": [-67.6069231576383, -2.465998919716275]}}, {"type": "Feature", "properties": {"norad_id": 37214, "name": "FENGYUN 3B", "group": "weather", "lat": 1.547046018027665, "lon": -157.5673683034273, "alt_km": 861.4134425150332, "timestamp": "2025-12-08T05:48:08.691390+00:00", "meta": {"OBJECT_NAME": "FENGYUN 3B", "OBJECT_ID": "2010-059A", "EPOCH": "2025-12-07T22:26:39.367104", "MEAN_MOTION": 14.14787687, "ECCENTRICITY": 0.00222215, "INCLINATION": 98.9915, "RA_OF_ASC_NODE": 21.8789, "ARG_OF_PERICENTER": 11.3833, "MEAN_ANOMALY": 46.2158, "EPHEMERIS_TYPE": 0, "CLASSIFICATION_TYPE": "U", "NORAD_CAT_ID": 37214, "ELEMENT_SET_NO": 999, "REV_AT_EPOCH": 78038, "BSTAR": 0.00010775334, "MEAN_MOTION_DOT": 1.63e-06, "MEAN_MOTION_DDOT": 0}, "tle": {"line1": "1 37214U 10059A   25341.93517786  .00000163  00000+0  10775-3 0  9995", "line2": "2 37214  98.9915  21.8789 0022221  11.3833  46.2158 14.14787687780388"}}, "geometry": {"type": "Point", "coordinates": [-157.5673683034273, 1.547046018027665]}}, {"type": "Feature", "properties": {"norad_id": 37849, "name": "SUOMI NPP", "group": "weather", "lat": -56.29594397309933, "lon": -66.98419240982332, "alt_km": 835.5236900958644, "timestamp": "2025-12-08T05:48:08.691401+00:00", "meta": {"OBJECT_NAME": "SUOMI NPP", "OBJECT_ID": "2011-061A", "EPOCH": "2025-12-07T21:36:49.572864", "MEAN_MOTION": 14.19511923, "ECCENTRICITY": 0.00020814, "INCLINATION": 98.7766, "RA_OF_ASC_NODE": 279.2859, "ARG_OF_PERICENTER": 128.646, "MEAN_ANOMALY": 231.4902, "EPHEMERIS_TYPE": 0, "CLASSIFICATION_TYPE": "U", "NORAD_CAT_ID": 37849, "ELEMENT_SET_NO": 999, "REV_AT_EPOCH": 73130, "BSTAR": 0.00010040847, "MEAN_MOTION_DOT": 1.67e-06, "MEAN_MOTION_DDOT": 0}, "tle": {"line1": "1 37849U 11061A   25341.90057376  .00000167  00000+0  10041-3 0  9994", "line2": "2 37849  98.7766 279.2859 0002081 128.6460 231.4902 14.19511923731307"}}, "geometry": {"type": "Point", "coordinates": [-66.98419240982332, -56.29594397309933]}}]}